ODIN                    
1 26702U 01007A   26068.66272157  .00042500  00000+0  55361-3 0  9996
2 26702  97.4078 104.7066 0004579 141.3699 218.7886 15.58615471373833
STARLINK-1845           
1 47135U 20088P   26068.86338570  .00122705  00000+0  18016-2 0  9994
2 47135  53.0527 276.5578 0001733 225.3823 134.7046 15.54626458292209
