[{"OBJECT_NAME":"ODIN","OBJECT_ID":"2001-007A","EPOCH":"2026-03-09T15:54:19.144512","MEAN_MOTION":15.58615472,"ECCENTRICITY":0.00045789,"INCLINATION":97.4078,"RA_OF_ASC_NODE":104.7066,"ARG_OF_PERICENTER":141.3699,"MEAN_ANOMALY":218.7886,"EPHEMERIS_TYPE":0,"CLASSIFICATION_TYPE":"U","NORAD_CAT_ID":26702,"ELEMENT_SET_NO":999,"REV_AT_EPOCH":37383,"BSTAR":0.00055360612,"MEAN_MOTION_DOT":0.000425,"MEAN_MOTION_DDOT":0},{"OBJECT_NAME":"STARLINK-1845","OBJECT_ID":"2020-088P","EPOCH":"2026-03-09T20:43:16.524480","MEAN_MOTION":15.54626458,"ECCENTRICITY":0.00017329,"INCLINATION":53.0527,"RA_OF_ASC_NODE":276.5578,"ARG_OF_PERICENTER":225.3823,"MEAN_ANOMALY":134.7046,"EPHEMERIS_TYPE":0,"CLASSIFICATION_TYPE":"U","NORAD_CAT_ID":47135,"ELEMENT_SET_NO":999,"REV_AT_EPOCH":29220,"BSTAR":0.0018015678,"MEAN_MOTION_DOT":0.00122705,"MEAN_MOTION_DDOT":0}]
